ORBCOMM FM37            
1 33064U 08031E   25103.94136720  .00003437  00000+0  48279-3 0  9990
2 33064  48.4387 289.0069 0005057 101.5366  49.5273 14.79480838904538
ORBCOMM FM40            
1 33065U 08031F   25103.81205965  .00005007  00000+0  65600-3 0  9997
2 33065  48.4405 274.7154 0006243 114.3861  21.6749 14.81646310904616
VESSELSAT 1             
1 37840U 11058C   25103.69065481  .00000468  00000+0  11055-3 0  9999
2 37840  19.9607 124.1496 0013583 196.4288 163.5676 14.11337488697186
ORBCOMM FM109           
1 40086U 14040A   25103.91204423  .00001429  00000+0  34422-3 0  9996
2 40086  47.0043 319.8302 0001409  35.0729 325.0249 14.58048649571685
ORBCOMM FM107           
1 40087U 14040B   25103.87500012  .00001422  00000+0  34240-3 0  9996
2 40087  47.0060 320.9922 0001356 328.2586  31.8217 14.58107629571754
ORBCOMM FM106           
1 40088U 14040C   25103.43089873  .00002288  00000+0  41498-3 0  9990
2 40088  47.0579 150.3656 0016017 127.9987 232.2353 14.69253232573954
ORBCOMM FM111           
1 40089U 14040D   25103.88054584  .00005484  00000+0  64089-3 0  9993
2 40089  47.0031   7.0056 0030824 244.7803 114.9897 14.85886533580666
ORBCOMM FM104           
1 40090U 14040E   25103.86161736  .00001299  00000+0  32641-3 0  9990
2 40090  47.0069 353.8919 0016933 271.5664  88.3281 14.56529203571248
